#aV2010  8 28  0  0   .00000000      96 DD+AD WGS84 FIT  NGA
## 1598 518400.00000000   900.00000000 55436  .0000000000000
+   32     1  2  3  4  5  6  7  8  9 10 11 12 13 14 15 16 17
+         18 19 20 21 22 23 24 25 26 27 28 29 30 31 32  0  0
+          0  0  0  0  0  0  0  0  0  0  0  0  0  0  0  0  0
+          0  0  0  0  0  0  0  0  0  0  0  0  0  0  0  0  0
+          0  0  0  0  0  0  0  0  0  0  0  0  0  0  0  0  0
++         0  0  0  0  0  0  0  0  0  0  0  0  0  0  0  0  0
++         0  0  0  0  0  0  0  0  0  0  0  0  0  0  0  0  0
++         0  0  0  0  0  0  0  0  0  0  0  0  0  0  0  0  0
++         0  0  0  0  0  0  0  0  0  0  0  0  0  0  0  0  0
++         0  0  0  0  0  0  0  0  0  0  0  0  0  0  0  0  0
%c cc cc ccc ccc cccc cccc cccc cccc ccccc ccccc ccccc ccccc
%c cc cc ccc ccc cccc cccc cccc cccc ccccc ccccc ccccc ccccc
%f  0.0000000  0.000000000  0.00000000000  0.000000000000000
%f  0.0000000  0.000000000  0.00000000000  0.000000000000000
%i    0    0    0    0      0      0      0      0         0
%i    0    0    0    0      0      0      0      0         0
/*      NGA, ST. LOUIS,MO.                                  
/*   EPHEMERIS COMPUTED FROM  3 DAYS OF DATA                
/* CCCCCCCCCCCCCCCCCCCCCCCCCCCCCCCCCCCCCCCCCCCCCCCCCCCCCCCCC
/* CCCCCCCCCCCCCCCCCCCCCCCCCCCCCCCCCCCCCCCCCCCCCCCCCCCCCCCCC
*  2010  8 28 10  0   .00000000                                                 
P  1  -3415.460759 -16803.845593 -20366.738269   -156.602412                    
V  1  18464.815250 -17789.264780  11771.284474      -.039555                    
P  2  13566.071598  21138.432585  -9327.284790    284.207893                    
V  2    766.135121  12027.054629  27922.432842       .028684                    
P  3 -22789.352971 -10240.347364  -9875.640159    600.827012                    
V  3  12235.941110  -1592.197952 -27328.300213       .051496                    
P  4   5846.509316  25621.973132   1926.411578    156.549096                    
V  4  -4414.760646  -1539.933324  31364.788675       .086252                    
P  5  14025.162000   7176.040755 -21405.194454    -29.303025                    
V  5 -18474.107402  19908.083435  -5344.886198      -.046527                    
P  6 -18848.547048 -13449.128127 -12990.173059    516.349992                    
V  6  16992.985527    463.110970 -24643.460855      -.149819                    
P  7  -8199.521029  17196.420490 -18434.297676     -1.946546                    
V  7  -7743.772099 -22155.985299 -17418.563302       .000230                    
P  8  -1198.101942  24490.226322  -9481.128908      6.522230                    
V  8  -4448.936231 -11497.541991 -29683.819214       .000939                    
P  9  15572.139381   3329.371183  20716.814613     27.012197                    
V  9   7581.265492  26458.243228  -9679.701377       .023267                    
P 10   2497.675405  17488.942966 -19911.332982    -50.799080                    
V 10 -18743.060840  16625.907052  12715.167977      -.008773                    
P 11 -16854.279656   3306.401398  20033.179177    -85.587925                    
V 11 -12288.005397 -23316.682631  -6032.692150      -.026052                    
P 12  21221.140522  -8342.012977  13525.653616    -78.651977                    
V 12 -10598.309249  13644.618300  25256.929002       .037977                    
P 13 -17106.685867   7481.312778 -19045.876165    298.760388                    
V 13 -22348.475517  -8244.490575  16908.413020      -.008647                    
P 14  -4013.549496 -15837.298351  21120.438540     82.979866                    
V 14  25397.011023   7123.104964  10102.420281       .037828                    
P 15  26112.818573   5054.731493   1343.349270   -217.323442                    
V 15    972.479237   3254.557517 -31438.926176       .055165                    
P 16  -9112.044874 -11925.954014 -21867.649730   -103.322726                    
V 16  20100.036521 -19238.965858   2383.398985      -.034911                    
P 17    293.429219  15702.493456  21550.090795    168.438244                    
V 17 -26206.363953  -6851.787665   5164.296186       .015817                    
P 18  16678.425106 -20155.913406   3456.208700     89.667438                    
V 18   5639.193711   -148.374862 -31022.916767       .022568                    
P 19 -25730.876314  -6883.157654   2363.952447    -61.237984                    
V 19  -1972.925385  -3404.921014 -31304.677196      -.030741                    
P 20 -21211.221205   9755.730963  12481.853037     51.700252                    
V 20   8589.721915 -13986.152951  25313.214711      -.004065                    
P 21   6867.600107 -19551.467439 -15899.929793    -84.162548                    
V 21   8435.276992  19649.963192 -20697.657621      -.026459                    
P 22   7441.790793 -21558.059185  13705.226324    164.273732                    
V 22  14276.220798 -10054.134219 -23963.436472      -.008111                    
P 23 -24133.943490   1815.930092 -11333.780980    356.492069                    
V 23 -13289.679531  -5493.098758  27120.612253      -.017534                    
P 24 -12253.623971 -21609.515785   9849.644352    316.660982                    
V 24   -229.953602 -12600.362673 -27896.813219       .032566                    
P 25  20024.801256 -16895.524560   4388.960521    -40.451852                    
V 25  -1803.383702   5980.870579  31081.346265      -.002259                    
P 26  22565.671178  12564.518878  -7642.639024      -.569760                    
V 26  -8789.495558  -1443.152148 -30189.973120      -.067368                    
P 27  16776.800683   8360.618622  19572.281142    183.737183                    
V 27   6798.184514  22307.155098 -15723.932721       .034980                    
P 28 -10125.686471  21383.456272  12254.141516     -5.687923                    
V 28 -12224.736907   8780.437273 -26748.363503       .013376                    
P 29  18025.199876  -7781.550735 -17784.508691    145.208722                    
V 29  21442.142669   7829.240497  18259.685265       .027988                    
P 30  18886.484789 -18364.104471   2813.858567    273.343586                    
V 30   -460.050218   5033.505584  31426.763390       .033370                    
P 31  -7348.150098 -25419.526556   -240.341071    -13.787797                    
V 31   2191.719868  -1194.241439  32241.641091       .029024                    
P 32 -20395.378397   1862.596603  17047.432253    -71.849193                    
V 32  14675.945644 -15370.566381  19973.642822      -.089624                    
EOF
